# From MPEC 2024-Q14
P/1894 F1 (Denning),e,4.0270,20.6114,109.4523,4.421346,0.1060162,0.64693884,313.1992,09/19.0/2024,2000,g 15.5,4.0
# From NK 1615
P/1996 R2 (Lagerkvist),e,2.5994,40.0546,333.4556,3.773421,0.1344625,0.31444019,274.6838,09/19.0/2024,2000,g 11.5,4.0
# From MPC 75703
P/1998 VS24 (LINEAR),e,5.0285,159.0548,244.8013,4.521871,0.1025007,0.24367284,248.9606,09/19.0/2024,2000,g 13.0,2.0
# From unp
P/1999 D1 (Hermann),e,21.2548,348.7597,173.8384,5.785449,0.0708269,0.71317334,306.7855,09/19.0/2024,2000,g  9.0,4.0
# From unp
P/1999 R1 (SOHO),e,11.4295,351.6134,56.8496,2.508396,0.2480904,0.97997996,0.0000,08/21.0345/2023,2000,g  9.0,4.0
# From NK 731
P/1999 RO28 (LONEOS),e,7.5666,137.8538,231.3422,3.425701,0.1554461,0.67229743,296.8485,09/19.0/2024,2000,g 20.0,2.0
# From MPC 75704
P/1999 XN120 (Catalina),e,5.0295,285.2527,161.6684,4.179908,0.1153331,0.21103475,307.0411,09/19.0/2024,2000,g 13.5,2.0
# From unp
P/2000 QJ46 (LINEAR),e,4.4328,158.1019,222.2739,5.790772,0.0707293,0.67547489,251.1722,09/19.0/2024,2000,g  9.0,4.0
# From NK 744
P/2000 R2 (LINEAR),e,11.6798,160.2825,176.5883,3.468679,0.1525661,0.53074963,292.9816,09/19.0/2024,2000,g 18.0,4.0
# From unp
P/2001 BB50 (LINEAR-NEAT),e,10.3273,351.1509,193.3474,5.752095,0.0714439,0.58603255,264.0267,09/19.0/2024,2000,g 13.0,4.0
# From MPC 43019
P/2001 H5 (NEAT),e,8.3702,328.6543,224.6200,6.095330,0.0654950,0.59866993,214.1782,09/19.0/2024,2000,g 12.0,4.0
# From MPEC 2023-UR6
P/2002 EJ57 (LINEAR),e,4.9856,330.2455,167.2599,6.456674,0.0600746,0.59348945,137.2160,09/19.0/2024,2000,g 12.5,4.0
# From MPC 75007
C/2002 VQ94 (LINEAR),e,70.6938,35.1425,99.8199,185.7564,0.0003893,0.96358282,2.6465,09/19.0/2024,2000,g  9.5,2.0
# From MPC 50354
P/2003 F2 (NEAT),e,11.6651,358.9071,192.5016,6.511128,0.0593225,0.54155885,105.0382,09/19.0/2024,2000,g 16.5,2.0
# From MPC 50139
P/2003 QX29 (NEAT),e,11.3992,264.5333,37.6660,8.003307,0.0435311,0.47159893,345.9781,09/19.0/2024,2000,g  8.5,4.0
# From MPC105235
P/2003 T12 (SOHO),e,11.0251,174.5773,219.7852,2.584079,0.2372715,0.77026089,18.3278,09/19.0/2024,2000,g 17.0,4.0
# From unp
P/2003 U3 (NEAT),e,7.0161,347.9304,357.0370,5.042602,0.0870406,0.51060657,314.5101,09/19.0/2024,2000,g 12.0,4.0
# From MPEC 2022-YN2
P/2004 FY140 (LINEAR),e,2.1623,327.2649,254.1411,4.969876,0.0889582,0.19238110,281.2101,09/19.0/2024,2000,g 12.5,2.0
# From unp
P/2004 H2 (Larsen),e,11.7747,131.3747,104.6952,4.526940,0.1023286,0.41685187,41.9849,09/19.0/2024,2000,g  9.0,4.0
# From MPC 53304
P/2004 R3 (LINEAR-NEAT),e,12.7957,305.1215,37.4220,4.751320,0.0951662,0.25437929,104.4829,09/19.0/2024,2000,g 14.5,4.0
# From MPC 75705
P/2004 V5 (LINEAR-Hill),e,19.3452,47.7409,87.2959,8.026077,0.0433460,0.44761058,314.3724,09/19.0/2024,2000,g  8.0,4.0
# From MPC 75705
P/2004 V5-B (LINEAR-Hill),e,19.3453,47.7412,87.2995,8.026421,0.0433432,0.44763207,314.3334,09/19.0/2024,2000,g  8.0,4.0
# From MPC 54164
P/2005 E1 (Tubbiolo),e,4.2611,335.5150,193.8805,7.064991,0.0524852,0.37684043,18.7466,09/19.0/2024,2000,g 10.0,4.0
# From unp
P/2005 GF8 (LONEOS),e,1.1658,312.8378,285.4064,5.757163,0.0713496,0.51387917,130.5806,09/19.0/2024,2000,g  9.0,4.0
# From MPC 79019
P/2005 J1 (McNaught),e,31.7408,268.8004,338.9176,3.573851,0.1458812,0.56920106,316.8592,09/19.0/2024,2000,g 16.5,4.0
# From MPC 74246
P/2005 L1 (McNaught),e,7.8297,132.8477,155.2952,3.985679,0.1238656,0.23247509,127.5958,09/19.0/2024,2000,g  9.5,4.0
# From MPC 75706
P/2005 S2 (Skiff),e,3.1375,161.3466,229.8482,7.989477,0.0436442,0.19878588,290.7085,09/19.0/2024,2000,g  7.5,4.0
# From MPEC 2024-RQ6
P/2005 SB216 (LONEOS),e,24.1175,1.1162,83.1968,7.158784,0.0514571,0.46590113,335.1855,09/19.0/2024,2000,g 12.0,2.0
# From MPC 73461
P/2005 T3 (Read),e,6.2295,27.6369,6.9274,7.582085,0.0472086,0.17510423,327.0741,09/19.0/2024,2000,g  9.0,4.0
# From MPC 73461
P/2005 T4 (SWAN),e,160.2743,25.9061,41.8555,9.353161,0.0344561,0.93036668,238.0569,09/19.0/2024,2000,g 15.0,4.0
# From MPC 75706
P/2005 T5 (Broughton),e,21.3833,57.0672,304.7564,7.264377,0.0503392,0.55210391,346.4669,09/19.0/2024,2000,g 11.0,4.0
# From MPEC 2024-DD5
P/2005 XR132 (Spacewatch),e,14.4753,265.3960,240.7670,3.758004,0.1352908,0.43256916,188.3203,09/19.0/2024,2000,g 16.0,4.0
# From unp
P/2005 Y2 (McNaught),e,19.1509,93.8046,193.3708,6.290499,0.0624707,0.46457271,89.9820,09/19.0/2024,2000,g  9.0,4.0
# From MPEC 2024-JU4
P/2006 AH2 (Sheppard-Tholen),e,10.0162,261.6463,196.0326,6.847578,0.0550045,0.41710585,21.5159,09/19.0/2024,2000,g 13.0,4.0
# From unp
P/2006 F4 (Spacewatch),e,12.4277,183.5605,31.3454,3.488270,0.1512826,0.35008098,280.8451,09/19.0/2024,2000,g  9.0,4.0
# From MPC 75707
P/2006 HR30 (Siding Spring),e,31.9364,309.7883,117.4703,7.800600,0.0452389,0.84365309,293.0021,09/19.0/2024,2000,g 11.0,4.0
# From unp
P/2006 XG16 (Spacewatch),e,9.0627,78.4046,40.9137,3.638514,0.1420097,0.41925047,194.4226,09/19.0/2024,2000,g  9.0,4.0
# From MPC 75707
P/2007 C2 (Catalina),e,8.6123,275.2425,180.1521,7.013490,0.0530643,0.47350144,330.8886,09/19.0/2024,2000,g 10.0,4.0
# From MPC 84315
C/2007 D1 (LINEAR),e,41.5080,171.1120,339.7021,1171,0.0000246,0.99253330,0.0000,06/11.4438/2007,2000,g  3.5,4.0
# From MPEC 2024-GJ3
P/2007 K2 (Gibbs),e,7.6099,188.5481,347.1720,7.342010,0.0495429,0.68576682,317.3827,09/19.0/2024,2000,g 14.0,4.0
# From MPC 60925
P/2007 Q2 (Gilmore),e,10.1971,172.2107,162.8704,5.661151,0.0731723,0.66913786,101.9336,09/19.0/2024,2000,g 16.0,4.0
# From MPC 73462
P/2007 S1 (Zhao),e,5.9641,141.3316,245.2419,3.817615,0.1321344,0.33825731,94.2551,09/19.0/2024,2000,g 13.0,4.0
# From MPEC 2024-GJ3
C/2007 S2 (Lemmon),e,16.9053,296.1211,210.1628,12.49923,0.0223038,0.55622251,130.7972,09/19.0/2024,2000,g  6.5,4.0
# From MPC 61994
P/2007 T2 (Kowalski),e,9.7504,3.3870,359.6708,3.043676,0.1856121,0.78559501,56.8720,09/19.0/2024,2000,g 18.5,4.0
# From MPEC 2024-GJ3
C/2008 E1 (Catalina),e,34.8664,188.9754,270.2869,10.76533,0.0279038,0.55257978,163.9702,09/19.0/2024,2000,g  7.0,4.0
# From MPC 64114
P/2008 O3 (Boattini),e,32.3254,47.6083,341.1951,8.209317,0.0419028,0.69646768,248.9462,09/19.0/2024,2000,g 13.0,4.0
# From MPC 75710
P/2008 Y3 (McNaught),e,38.7788,262.8434,238.0701,8.041390,0.0432222,0.44756337,248.7242,09/19.0/2024,2000,g  8.5,4.0
# From MPC 75710
P/2009 B1 (Boattini),e,22.2574,297.1065,128.9676,6.730101,0.0564510,0.63606178,323.3446,09/19.0/2024,2000,g 13.0,4.0
# From MPC 66466
C/2009 G1 (STEREO),e,108.1649,120.8089,175.5354,464.1041,0.0000986,0.99754383,0.0000,04/18.0362/2009,2000,g  9.0,4.0
# From MPC 75710
P/2009 O3 (Hill),e,16.2651,183.7149,154.4580,7.769333,0.0455123,0.68663453,254.4573,09/19.0/2024,2000,g 12.5,4.0
# From MPC 68902
P/2009 Q5 (McNaught),e,40.9661,160.2414,209.1899,7.425439,0.0487103,0.60961798,266.6915,09/19.0/2024,2000,g 10.0,4.0
# From unp
P/2009 QG31 (La Sagra),e,5.0506,346.1224,5.7023,3.570548,0.1460837,0.39930191,75.8387,09/19.0/2024,2000,g 14.0,4.0
# From MPC112389
P/2009 T2 (La Sagra),e,27.6105,216.3452,215.9519,7.710729,0.0460321,0.76742927,246.9605,09/19.0/2024,2000,g 14.0,4.0
# From MPC105235
P/2009 WX51 (Catalina),e,9.5955,31.5328,118.2760,3.082535,0.1821135,0.73952117,255.6200,09/19.0/2024,2000,g 19.0,2.0
# From MPC 74247
P/2009 Y2 (Kowalski),e,29.9738,262.0861,172.1961,6.542441,0.0588972,0.63743366,312.6667,09/19.0/2024,2000,g 13.0,4.0
# From MPC 75711
P/2010 A3 (Hill),e,14.8190,63.6438,42.2110,6.100781,0.0654073,0.73431134,348.6559,09/19.0/2024,2000,g 14.0,4.0
# From MPC 75008
P/2010 C1 (Scotti),e,9.1161,141.6098,3.0087,7.123255,0.0518425,0.26306873,283.9954,09/19.0/2024,2000,g  9.5,4.0
# From MPC 75008
P/2010 D2 (WISE),e,57.1265,319.8734,119.9640,6.720217,0.0565756,0.45177298,302.1120,09/19.0/2024,2000,g 16.0,4.0
# From MPC 75009
P/2010 E2 (Jarnac),e,15.4094,177.8090,8.2342,8.637574,0.0388254,0.72025686,205.7862,09/19.0/2024,2000,g 14.0,4.0
# From MPC 72851
P/2010 H2 (Vales),e,14.2796,64.1871,128.0508,3.832556,0.1313625,0.19741370,337.4507,09/19.0/2024,2000,g  6.0,4.0
# From MPC 70361
P/2010 H3 (SOHO),e,23.1532,77.1902,26.0583,3.035783,0.1863365,0.98554636,0.0000,05/25.1796/2026,2000,g 20.0,2.0
# From MPEC 2024-GJ3
P/2010 H4 (Scotti),e,2.3178,44.7392,179.1357,6.614250,0.0579406,0.26666259,303.4888,09/19.0/2024,2000,g 10.5,4.0
# From MPC 74637
P/2010 H5 (Scotti),e,14.0560,24.5778,174.6036,7.175064,0.0512821,0.15398065,272.5604,09/19.0/2024,2000,g 13.0,2.0
# From MPC 98558
P/2010 J3 (McMillan),e,13.2324,106.5302,157.4625,8.986857,0.0365841,0.72425979,188.4471,09/19.0/2024,2000,g 11.0,4.0
# From MPC 84315
P/2010 JC81 (WISE),e,38.8004,30.8694,12.4796,8.102834,0.0427316,0.77827290,208.8421,09/19.0/2024,2000,g  9.0,4.0
# From MPEC 2024-H77
A/2010 LN135,e,64.5783,184.7874,181.5578,23766,0.0000003,0.99992669,0.0000,05/25.7616/2011,2000,g 14.0,2.0
# From MPC 74248
P/2010 T2 (PANSTARRS),e,7.8800,57.9368,350.8921,5.628056,0.0738187,0.32902637,14.9796,09/19.0/2024,2000,g 11.5,4.0
# From MPC 82316
P/2010 U1 (Boattini),e,8.2270,280.8063,86.4792,6.490129,0.0596107,0.24877551,317.0677,09/19.0/2024,2000,g  9.5,4.0
# From MPEC 2023-J95
C/2010 U3 (Boattini),e,55.5619,42.9889,88.0573,7333,0.0000016,0.99884935,0.0000,02/27.0030/2019,2000,g  1.0,4.0
# From MPC 79021
P/2010 UH55 (Spacewatch),e,8.0367,232.8653,225.2335,6.650960,0.0574616,0.56460128,282.2970,09/19.0/2024,2000,g 11.0,4.0
# From MPEC 2024-RQ6
P/2010 WK (LINEAR),e,11.4002,11.3198,41.0018,5.766775,0.0711712,0.69094367,4.3040,09/19.0/2024,2000,g 15.0,4.0
# From MPC 84021
P/2011 C2 (Gibbs),e,10.8911,11.9551,160.2864,7.411585,0.0488469,0.27038723,228.2626,09/19.0/2024,2000,g  9.0,4.0
# From MPEC 2013-Y32
P/2011 CR42 (Catalina),e,8.4591,58.7139,172.6575,3.511077,0.1498109,0.28002897,342.7576,09/19.0/2024,2000,g  9.0,4.0
# From MPC 79866
P/2011 FR143 (Lemmon),e,15.9661,190.8592,349.7244,6.876281,0.0546605,0.45204777,272.6592,09/19.0/2024,2000,g 14.0,2.0
# From MPC 82317
P/2011 JB15 (Spacewatch-Boattini),e,19.1287,153.5785,110.8218,7.377400,0.0491869,0.31463084,228.5226,09/19.0/2024,2000,g  9.0,4.0
# From MPC 87913
